{
  "type": "FeatureCollection",
  "features": [
    {
      "type": "Feature",
      "properties": {
        "norad_id": 34350,
        "name": "IRIDIUM 33 DEB",
        "group": "iridium-33-debris",
        "lat": -41.55760064824192,
        "lon": -175.5940351741988,
        "alt_km": 749.7665135061188,
        "timestamp": "2025-12-16T13:52:37.907099+00:00",
        "meta_object_name": "IRIDIUM 33 DEB",
        "meta_object_id": "1997-051ES",
        "meta_epoch": "2025-12-15T19:24:26.787168",
        "meta_mean_motion": 14.45393781,
        "meta_eccentricity": 0.00230951,
        "meta_inclination": 86.3274,
        "meta_ra_of_asc_node": 1.4756,
        "meta_arg_of_pericenter": 125.7111,
        "meta_mean_anomaly": 53.7358,
        "meta_ephemeris_type": 0,
        "meta_classification_type": "U",
        "meta_norad_cat_id": 34350,
        "meta_element_set_no": 999,
        "meta_rev_at_epoch": 88337,
        "meta_bstar": 0.00030646416,
        "meta_mean_motion_dot": 1.101e-05,
        "meta_mean_motion_ddot": 0,
        "tle_line1": "1 34350U 97051ES  25349.80864337  .00001101  00000+0  30646-3 0  9993",
        "tle_line2": "2 34350  86.3274   1.4756 0023095 125.7111  53.7358 14.45393781883372"
      },
      "geometry": {
        "type": "Point",
        "coordinates": [
          -175.5940351741988,
          -41.55760064824192
        ]
      }
    },
    {
      "type": "Feature",
      "properties": {
        "norad_id": 34366,
        "name": "IRIDIUM 33 DEB",
        "group": "iridium-33-debris",
        "lat": -50.848111235422536,
        "lon": 43.17253107603871,
        "alt_km": 735.3927422847355,
        "timestamp": "2025-12-16T13:52:37.907109+00:00",
        "meta_object_name": "IRIDIUM 33 DEB",
        "meta_object_id": "1997-051FJ",
        "meta_epoch": "2025-12-15T05:21:52.451136",
        "meta_mean_motion": 14.54081827,
        "meta_eccentricity": 0.00226488,
        "meta_inclination": 86.3701,
        "meta_ra_of_asc_node": 48.2333,
        "meta_arg_of_pericenter": 131.8237,
        "meta_mean_anomaly": 290.4174,
        "meta_ephemeris_type": 0,
        "meta_classification_type": "U",
        "meta_norad_cat_id": 34366,
        "meta_element_set_no": 999,
        "meta_rev_at_epoch": 88218,
        "meta_bstar": 0.00070731798,
        "meta_mean_motion_dot": 3.016e-05,
        "meta_mean_motion_ddot": 0,
        "tle_line1": "1 34366U 97051FJ  25349.22352374  .00003016  00000+0  70732-3 0  9996",
        "tle_line2": "2 34366  86.3701  48.2333 0022648 131.8237 290.4174 14.54081827882183"
      },
      "geometry": {
        "type": "Point",
        "coordinates": [
          43.17253107603871,
          -50.848111235422536
        ]
      }
    },
    {
      "type": "Feature",
      "properties": {
        "norad_id": 34375,
        "name": "IRIDIUM 33 DEB",
        "group": "iridium-33-debris",
        "lat": 84.49101314134265,
        "lon": -138.5437435544995,
        "alt_km": 759.1493933079319,
        "timestamp": "2025-12-16T13:52:37.907120+00:00",
        "meta_object_name": "IRIDIUM 33 DEB",
        "meta_object_id": "1997-051FT",
        "meta_epoch": "2025-12-15T12:12:35.293248",
        "meta_mean_motion": 14.1799732,
        "meta_eccentricity": 0.0103466,
        "meta_inclination": 86.4324,
        "meta_ra_of_asc_node": 181.5831,
        "meta_arg_of_pericenter": 118.0515,
        "meta_mean_anomaly": 272.2786,
        "meta_ephemeris_type": 0,
        "meta_classification_type": "U",
        "meta_norad_cat_id": 34375,
        "meta_element_set_no": 999,
        "meta_rev_at_epoch": 86751,
        "meta_bstar": 0.00042546141,
        "meta_mean_motion_dot": 9.38e-06,
        "meta_mean_motion_ddot": 0,
        "tle_line1": "1 34375U 97051FT  25349.50874182  .00000938  00000+0  42546-3 0  9995",
        "tle_line2": "2 34375  86.4324 181.5831 0103466 118.0515 272.2786 14.17997320867513"
      },
      "geometry": {
        "type": "Point",
        "coordinates": [
          -138.5437435544995,
          84.49101314134265
        ]
      }
    },
    {
      "type": "Feature",
      "properties": {
        "norad_id": 34376,
        "name": "IRIDIUM 33 DEB",
        "group": "iridium-33-debris",
        "lat": -6.023470068027481,
        "lon": 4.42314931439831,
        "alt_km": 706.7856607843587,
        "timestamp": "2025-12-16T13:52:37.907130+00:00",
        "meta_object_name": "IRIDIUM 33 DEB",
        "meta_object_id": "1997-051FU",
        "meta_epoch": "2025-12-15T11:38:00.279744",
        "meta_mean_motion": 14.62609938,
        "meta_eccentricity": 0.00275056,
        "meta_inclination": 86.2984,
        "meta_ra_of_asc_node": 5.306,
        "meta_arg_of_pericenter": 157.5383,
        "meta_mean_anomaly": 202.704,
        "meta_ephemeris_type": 0,
        "meta_classification_type": "U",
        "meta_norad_cat_id": 34376,
        "meta_element_set_no": 999,
        "meta_rev_at_epoch": 88047,
        "meta_bstar": 0.00093642236,
        "meta_mean_motion_dot": 4.805e-05,
        "meta_mean_motion_ddot": 0,
        "tle_line1": "1 34376U 97051FU  25349.48472546  .00004805  00000+0  93642-3 0  9991",
        "tle_line2": "2 34376  86.2984   5.3060 0027505 157.5383 202.7040 14.62609938880477"
      },
      "geometry": {
        "type": "Point",
        "coordinates": [
          4.42314931439831,
          -6.023470068027481
        ]
      }
    },
    {
      "type": "Feature",
      "properties": {
        "norad_id": 34486,
        "name": "IRIDIUM 33 DEB",
        "group": "iridium-33-debris",
        "lat": -49.76786093125782,
        "lon": 5.977743486745697,
        "alt_km": 594.8806656005872,
        "timestamp": "2025-12-16T13:52:37.907140+00:00",
        "meta_object_name": "IRIDIUM 33 DEB",
        "meta_object_id": "1997-051GB",
        "meta_epoch": "2025-12-15T19:37:12.696384",
        "meta_mean_motion": 14.95945126,
        "meta_eccentricity": 0.00139259,
        "meta_inclination": 86.3932,
        "meta_ra_of_asc_node": 10.6046,
        "meta_arg_of_pericenter": 104.2242,
        "meta_mean_anomaly": 72.0227,
        "meta_ephemeris_type": 0,
        "meta_classification_type": "U",
        "meta_norad_cat_id": 34486,
        "meta_element_set_no": 999,
        "meta_rev_at_epoch": 89032,
        "meta_bstar": 0.0012947344,
        "meta_mean_motion_dot": 0.00014566,
        "meta_mean_motion_ddot": 0,
        "tle_line1": "1 34486U 97051GB  25349.81750806  .00014566  00000+0  12947-2 0  9991",
        "tle_line2": "2 34486  86.3932  10.6046 0013925 104.2242  72.0227 14.95945126890328"
      },
      "geometry": {
        "type": "Point",
        "coordinates": [
          5.977743486745697,
          -49.76786093125782
        ]
      }
    },
    {
      "type": "Feature",
      "properties": {
        "norad_id": 34487,
        "name": "IRIDIUM 33 DEB",
        "group": "iridium-33-debris",
        "lat": -41.421148628832725,
        "lon": 7.490500520058226,
        "alt_km": 776.283949620859,
        "timestamp": "2025-12-16T13:52:37.907150+00:00",
        "meta_object_name": "IRIDIUM 33 DEB",
        "meta_object_id": "1997-051GC",
        "meta_epoch": "2025-12-15T20:19:48.080064",
        "meta_mean_motion": 14.43220021,
        "meta_eccentricity": 0.00329918,
        "meta_inclination": 86.3434,
        "meta_ra_of_asc_node": 11.0395,
        "meta_arg_of_pericenter": 118.6827,
        "meta_mean_anomaly": 3.786,
        "meta_ephemeris_type": 0,
        "meta_classification_type": "U",
        "meta_norad_cat_id": 34487,
        "meta_element_set_no": 999,
        "meta_rev_at_epoch": 88293,
        "meta_bstar": 0.00017484947,
        "meta_mean_motion_dot": 6.12e-06,
        "meta_mean_motion_ddot": 0,
        "tle_line1": "1 34487U 97051GC  25349.84708426  .00000612  00000+0  17485-3 0  9996",
        "tle_line2": "2 34487  86.3434  11.0395 0032991 118.6827   3.7860 14.43220021882935"
      },
      "geometry": {
        "type": "Point",
        "coordinates": [
          7.490500520058226,
          -41.421148628832725
        ]
      }
    },
    {
      "type": "Feature",
      "properties": {
        "norad_id": 34488,
        "name": "IRIDIUM 33 DEB",
        "group": "iridium-33-debris",
        "lat": 43.06136165179244,
        "lon": -52.64295055302147,
        "alt_km": 462.8674896132534,
        "timestamp": "2025-12-16T13:52:37.907161+00:00",
        "meta_object_name": "IRIDIUM 33 DEB",
        "meta_object_id": "1997-051GD",
        "meta_epoch": "2025-12-15T14:08:51.912672",
        "meta_mean_motion": 15.30156177,
        "meta_eccentricity": 0.00124549,
        "meta_inclination": 86.3223,
        "meta_ra_of_asc_node": 304.4015,
        "meta_arg_of_pericenter": 46.5674,
        "meta_mean_anomaly": 313.6609,
        "meta_ephemeris_type": 0,
        "meta_classification_type": "U",
        "meta_norad_cat_id": 34488,
        "meta_element_set_no": 999,
        "meta_rev_at_epoch": 89283,
        "meta_bstar": 0.0030438437,
        "meta_mean_motion_dot": 0.00089902,
        "meta_mean_motion_ddot": 0,
        "tle_line1": "1 34488U 97051GD  25349.58948973  .00089902  00000+0  30438-2 0  9992",
        "tle_line2": "2 34488  86.3223 304.4015 0012454  46.5674 313.6609 15.30156177892832"
      },
      "geometry": {
        "type": "Point",
        "coordinates": [
          -52.64295055302147,
          43.06136165179244
        ]
      }
    }
  ]
}